AMOS-4                  
1 39237U 13045A   26073.93796331  .00000007  00000+0  00000+0 0  9991
2 39237   0.0400 243.5652 0003509 112.9840 218.6453  1.00271883 46019
ASTRA 2E                
1 39285U 13056A   26073.95396749  .00000149  00000+0  00000+0 0  9994
2 39285   0.0881  45.7219 0002613 301.8006 196.9541  1.00269254 45478
FM-6                    
1 39360U 13058A   26072.68973666 -.00000017  00000+0  00000+0 0  9993
2 39360   0.0194 140.7287 0003266  45.2547 117.4447  1.00269118 45117
RADUGA-1M 3             
1 39375U 13062A   26072.28516850  .00000155  00000+0  00000+0 0  9990
2 39375   5.7163  73.5639 0000338 323.1584 271.8576  1.00272833 45140
SES-8                   
1 39460U 13071A   26073.94385667 -.00000270  00000+0  00000+0 0  9998
2 39460   0.0373 263.4961 0001892 123.7531 220.0938  1.00272993 43497
INMARSAT 5-F1           
1 39476U 13073A   26072.69041523  .00000028  00000+0  00000+0 0  9998
2 39476   0.0188 141.3479 0000414 316.8500  24.2236  1.00271708 44620
TKSAT-1 (TUPAC KATARI)  
1 39481U 13075A   26073.90780318 -.00000196  00000+0  00000+0 0  9990
2 39481   0.0403 326.4251 0002916  26.0154  59.6800  1.00270778 44652
EXPRESS-AM5             
1 39487U 13077A   26072.41016947 -.00000280  00000+0  00000+0 0  9997
2 39487   0.0137 231.7554 0002152  93.2840 133.6751  1.00270622 45406
GSAT-14                 
1 39498U 14001A   26073.93969664  .00000000  00000+0  00000+0 0  9997
2 39498   0.0251 163.5591 0003847 146.1144 275.1783  1.00269717 44437
THAICOM 6               
1 39500U 14002A   26073.89267356 -.00000122  00000+0  00000+0 0  9992
2 39500   0.0475 119.5671 0002427 301.5797 151.2246  1.00272116 44517
TDRS 12                 
1 39504U 14004A   26073.84557625 -.00000268  00000+0  00000+0 0  9995
2 39504   3.8861  17.4350 0003510 272.2235 146.1560  1.00266470 43333
ABS-2                   
1 39508U 14006A   26073.93986998 -.00000087  00000+0  00000+0 0  9999
2 39508   0.0155 235.3169 0002867 120.6569 229.8338  1.00272203 44335
ATHENA-FIDUS            
1 39509U 14006B   26072.57761226  .00000154  00000+0  00000+0 0  9998
2 39509   0.0170 125.3023 0001566 258.3998  33.2518  1.00275261 44121
TURKSAT 4A              
1 39522U 14007A   26073.93336995  .00000145  00000+0  00000+0 0  9996
2 39522   0.0720 288.3631 0004189  24.4909 237.7069  1.00269689 44028
EXPRESS-AT1             
1 39612U 14010A   26073.93614330  .00000077  00000+0  00000+0 0  9996
2 39612   0.0210 137.2813 0000357 302.8147 125.5056  1.00275613 43872
EXPRESS-AT2             
1 39613U 14010B   26070.51237429 -.00000280  00000+0  00000+0 0  9995
2 39613   0.0166 193.7113 0001308  80.7943 218.9521  1.00271550 43528
AMAZONAS 4A             
1 39616U 14011A   26073.91040319 -.00000253  00000+0  00000+0 0  9996
2 39616   0.0630 202.2623 0002020 133.8373  90.1498  1.00273769 43761
