[{"OBJECT_NAME":"AMOS-4","OBJECT_ID":"2013-045A","EPOCH":"2026-03-14T22:30:40.029984","MEAN_MOTION":1.00271883,"ECCENTRICITY":0.00035097,"INCLINATION":0.04,"RA_OF_ASC_NODE":243.5652,"ARG_OF_PERICENTER":112.984,"MEAN_ANOMALY":218.6453,"EPHEMERIS_TYPE":0,"CLASSIFICATION_TYPE":"U","NORAD_CAT_ID":39237,"ELEMENT_SET_NO":999,"REV_AT_EPOCH":4601,"BSTAR":0,"MEAN_MOTION_DOT":7.0e-8,"MEAN_MOTION_DDOT":0},{"OBJECT_NAME":"ASTRA 2E","OBJECT_ID":"2013-056A","EPOCH":"2026-03-14T22:53:42.791136","MEAN_MOTION":1.00269254,"ECCENTRICITY":0.00026139,"INCLINATION":0.0881,"RA_OF_ASC_NODE":45.7219,"ARG_OF_PERICENTER":301.8006,"MEAN_ANOMALY":196.9541,"EPHEMERIS_TYPE":0,"CLASSIFICATION_TYPE":"U","NORAD_CAT_ID":39285,"ELEMENT_SET_NO":999,"REV_AT_EPOCH":4547,"BSTAR":0,"MEAN_MOTION_DOT":1.49e-6,"MEAN_MOTION_DDOT":0},{"OBJECT_NAME":"FM-6","OBJECT_ID":"2013-058A","EPOCH":"2026-03-13T16:33:13.247424","MEAN_MOTION":1.00269118,"ECCENTRICITY":0.00032665,"INCLINATION":0.0194,"RA_OF_ASC_NODE":140.7287,"ARG_OF_PERICENTER":45.2547,"MEAN_ANOMALY":117.4447,"EPHEMERIS_TYPE":0,"CLASSIFICATION_TYPE":"U","NORAD_CAT_ID":39360,"ELEMENT_SET_NO":999,"REV_AT_EPOCH":4511,"BSTAR":0,"MEAN_MOTION_DOT":-1.7e-7,"MEAN_MOTION_DDOT":0},{"OBJECT_NAME":"RADUGA-1M 3","OBJECT_ID":"2013-062A","EPOCH":"2026-03-13T06:50:38.558400","MEAN_MOTION":1.00272833,"ECCENTRICITY":3.385e-5,"INCLINATION":5.7163,"RA_OF_ASC_NODE":73.5639,"ARG_OF_PERICENTER":323.1584,"MEAN_ANOMALY":271.8576,"EPHEMERIS_TYPE":0,"CLASSIFICATION_TYPE":"U","NORAD_CAT_ID":39375,"ELEMENT_SET_NO":999,"REV_AT_EPOCH":4514,"BSTAR":0,"MEAN_MOTION_DOT":1.55e-6,"MEAN_MOTION_DDOT":0},{"OBJECT_NAME":"SES-8","OBJECT_ID":"2013-071A","EPOCH":"2026-03-14T22:39:09.216288","MEAN_MOTION":1.00272993,"ECCENTRICITY":0.0001892,"INCLINATION":0.0373,"RA_OF_ASC_NODE":263.4961,"ARG_OF_PERICENTER":123.7531,"MEAN_ANOMALY":220.0938,"EPHEMERIS_TYPE":0,"CLASSIFICATION_TYPE":"U","NORAD_CAT_ID":39460,"ELEMENT_SET_NO":999,"REV_AT_EPOCH":4349,"BSTAR":0,"MEAN_MOTION_DOT":-2.7e-6,"MEAN_MOTION_DDOT":0},{"OBJECT_NAME":"INMARSAT 5-F1","OBJECT_ID":"2013-073A","EPOCH":"2026-03-13T16:34:11.875872","MEAN_MOTION":1.00271708,"ECCENTRICITY":4.149e-5,"INCLINATION":0.0188,"RA_OF_ASC_NODE":141.3479,"ARG_OF_PERICENTER":316.85,"MEAN_ANOMALY":24.2236,"EPHEMERIS_TYPE":0,"CLASSIFICATION_TYPE":"U","NORAD_CAT_ID":39476,"ELEMENT_SET_NO":999,"REV_AT_EPOCH":4462,"BSTAR":0,"MEAN_MOTION_DOT":2.8e-7,"MEAN_MOTION_DDOT":0},{"OBJECT_NAME":"TKSAT-1 (TUPAC KATARI)","OBJECT_ID":"2013-075A","EPOCH":"2026-03-14T21:47:14.194752","MEAN_MOTION":1.00270778,"ECCENTRICITY":0.0002916,"INCLINATION":0.0403,"RA_OF_ASC_NODE":326.4251,"ARG_OF_PERICENTER":26.0154,"MEAN_ANOMALY":59.68,"EPHEMERIS_TYPE":0,"CLASSIFICATION_TYPE":"U","NORAD_CAT_ID":39481,"ELEMENT_SET_NO":999,"REV_AT_EPOCH":4465,"BSTAR":0,"MEAN_MOTION_DOT":-1.96e-6,"MEAN_MOTION_DDOT":0},{"OBJECT_NAME":"EXPRESS-AM5","OBJECT_ID":"2013-077A","EPOCH":"2026-03-13T09:50:38.642208","MEAN_MOTION":1.00270622,"ECCENTRICITY":0.00021526,"INCLINATION":0.0137,"RA_OF_ASC_NODE":231.7554,"ARG_OF_PERICENTER":93.284,"MEAN_ANOMALY":133.6751,"EPHEMERIS_TYPE":0,"CLASSIFICATION_TYPE":"U","NORAD_CAT_ID":39487,"ELEMENT_SET_NO":999,"REV_AT_EPOCH":4540,"BSTAR":0,"MEAN_MOTION_DOT":-2.8e-6,"MEAN_MOTION_DDOT":0},{"OBJECT_NAME":"GSAT-14","OBJECT_ID":"2014-001A","EPOCH":"2026-03-14T22:33:09.789696","MEAN_MOTION":1.00269717,"ECCENTRICITY":0.00038472,"INCLINATION":0.0251,"RA_OF_ASC_NODE":163.5591,"ARG_OF_PERICENTER":146.1144,"MEAN_ANOMALY":275.1783,"EPHEMERIS_TYPE":0,"CLASSIFICATION_TYPE":"U","NORAD_CAT_ID":39498,"ELEMENT_SET_NO":999,"REV_AT_EPOCH":4443,"BSTAR":0,"MEAN_MOTION_DOT":0,"MEAN_MOTION_DDOT":0},{"OBJECT_NAME":"THAICOM 6","OBJECT_ID":"2014-002A","EPOCH":"2026-03-14T21:25:26.995584","MEAN_MOTION":1.00272116,"ECCENTRICITY":0.00024274,"INCLINATION":0.0475,"RA_OF_ASC_NODE":119.5671,"ARG_OF_PERICENTER":301.5797,"MEAN_ANOMALY":151.2246,"EPHEMERIS_TYPE":0,"CLASSIFICATION_TYPE":"U","NORAD_CAT_ID":39500,"ELEMENT_SET_NO":999,"REV_AT_EPOCH":4451,"BSTAR":0,"MEAN_MOTION_DOT":-1.22e-6,"MEAN_MOTION_DDOT":0},{"OBJECT_NAME":"TDRS 12","OBJECT_ID":"2014-004A","EPOCH":"2026-03-14T20:17:37.788000","MEAN_MOTION":1.0026647,"ECCENTRICITY":0.00035101,"INCLINATION":3.8861,"RA_OF_ASC_NODE":17.435,"ARG_OF_PERICENTER":272.2235,"MEAN_ANOMALY":146.156,"EPHEMERIS_TYPE":0,"CLASSIFICATION_TYPE":"U","NORAD_CAT_ID":39504,"ELEMENT_SET_NO":999,"REV_AT_EPOCH":4333,"BSTAR":0,"MEAN_MOTION_DOT":-2.68e-6,"MEAN_MOTION_DDOT":0},{"OBJECT_NAME":"ABS-2","OBJECT_ID":"2014-006A","EPOCH":"2026-03-14T22:33:24.766272","MEAN_MOTION":1.00272203,"ECCENTRICITY":0.0002867,"INCLINATION":0.0155,"RA_OF_ASC_NODE":235.3169,"ARG_OF_PERICENTER":120.6569,"MEAN_ANOMALY":229.8338,"EPHEMERIS_TYPE":0,"CLASSIFICATION_TYPE":"U","NORAD_CAT_ID":39508,"ELEMENT_SET_NO":999,"REV_AT_EPOCH":4433,"BSTAR":0,"MEAN_MOTION_DOT":-8.7e-7,"MEAN_MOTION_DDOT":0},{"OBJECT_NAME":"ATHENA-FIDUS","OBJECT_ID":"2014-006B","EPOCH":"2026-03-13T13:51:45.699264","MEAN_MOTION":1.00275261,"ECCENTRICITY":0.00015668,"INCLINATION":0.017,"RA_OF_ASC_NODE":125.3023,"ARG_OF_PERICENTER":258.3998,"MEAN_ANOMALY":33.2518,"EPHEMERIS_TYPE":0,"CLASSIFICATION_TYPE":"U","NORAD_CAT_ID":39509,"ELEMENT_SET_NO":999,"REV_AT_EPOCH":4412,"BSTAR":0,"MEAN_MOTION_DOT":1.54e-6,"MEAN_MOTION_DDOT":0},{"OBJECT_NAME":"TURKSAT 4A","OBJECT_ID":"2014-007A","EPOCH":"2026-03-14T22:24:03.163680","MEAN_MOTION":1.00269689,"ECCENTRICITY":0.00041895,"INCLINATION":0.072,"RA_OF_ASC_NODE":288.3631,"ARG_OF_PERICENTER":24.4909,"MEAN_ANOMALY":237.7069,"EPHEMERIS_TYPE":0,"CLASSIFICATION_TYPE":"U","NORAD_CAT_ID":39522,"ELEMENT_SET_NO":999,"REV_AT_EPOCH":4402,"BSTAR":0,"MEAN_MOTION_DOT":1.45e-6,"MEAN_MOTION_DDOT":0},{"OBJECT_NAME":"EXPRESS-AT1","OBJECT_ID":"2014-010A","EPOCH":"2026-03-14T22:28:02.781120","MEAN_MOTION":1.00275613,"ECCENTRICITY":3.571e-5,"INCLINATION":0.021,"RA_OF_ASC_NODE":137.2813,"ARG_OF_PERICENTER":302.8147,"MEAN_ANOMALY":125.5056,"EPHEMERIS_TYPE":0,"CLASSIFICATION_TYPE":"U","NORAD_CAT_ID":39612,"ELEMENT_SET_NO":999,"REV_AT_EPOCH":4387,"BSTAR":0,"MEAN_MOTION_DOT":7.7e-7,"MEAN_MOTION_DDOT":0},{"OBJECT_NAME":"EXPRESS-AT2","OBJECT_ID":"2014-010B","EPOCH":"2026-03-11T12:17:49.138656","MEAN_MOTION":1.0027155,"ECCENTRICITY":0.00013084,"INCLINATION":0.0166,"RA_OF_ASC_NODE":193.7113,"ARG_OF_PERICENTER":80.7943,"MEAN_ANOMALY":218.9521,"EPHEMERIS_TYPE":0,"CLASSIFICATION_TYPE":"U","NORAD_CAT_ID":39613,"ELEMENT_SET_NO":999,"REV_AT_EPOCH":4352,"BSTAR":0,"MEAN_MOTION_DOT":-2.8e-6,"MEAN_MOTION_DDOT":0},{"OBJECT_NAME":"AMAZONAS 4A","OBJECT_ID":"2014-011A","EPOCH":"2026-03-14T21:50:58.835616","MEAN_MOTION":1.00273769,"ECCENTRICITY":0.00020205,"INCLINATION":0.063,"RA_OF_ASC_NODE":202.2623,"ARG_OF_PERICENTER":133.8373,"MEAN_ANOMALY":90.1498,"EPHEMERIS_TYPE":0,"CLASSIFICATION_TYPE":"U","NORAD_CAT_ID":39616,"ELEMENT_SET_NO":999,"REV_AT_EPOCH":4376,"BSTAR":0,"MEAN_MOTION_DOT":-2.53e-6,"MEAN_MOTION_DDOT":0}]
